{"type": "FeatureCollection", "features": [ {"type": "Feature", "properties": {"norad_id": 40664, "name": "SKY MEXICO-1", "group": "intelsat", "lat": -0.03552978745802881, "lon": -142.82539688068212, "alt_km": 35779.05925900361, "timestamp": "2025-12-05T14:45:14.981340+00:00", "meta": {"OBJECT_NAME": "SKY MEXICO-1", "OBJECT_ID": "2015-026B", "EPOCH": "2025-12-04T11:38:20.665824", "MEAN_MOTION": 1.00270203, "ECCENTRICITY": 0.0002797, "INCLINATION": 0.0169, "RA_OF_ASC_NODE": 345.8981, "ARG_OF_PERICENTER": 281.7286, "MEAN_ANOMALY": 261.7558, "EPHEMERIS_TYPE": 0, "CLASSIFICATION_TYPE": "U", "NORAD_CAT_ID": 40664, "ELEMENT_SET_NO": 999, "REV_AT_EPOCH": 3850, "BSTAR": 0, "MEAN_MOTION_DOT": -2.2e-06, "MEAN_MOTION_DDOT": 0}, "tle": {"line1": "1 40664U 15026B   25338.48496141 -.00000220  00000+0  00000+0 0  9995", "line2": "2 40664   0.0169 345.8981 0002797 281.7286 261.7558  1.00270203 38500"}}, "geometry": {"type": "Point", "coordinates": [-142.82539688068212, -0.03552978745802881]}}, {"type": "Feature", "properties": {"norad_id": 40874, "name": "INTELSAT 34 (IS-34)", "group": "intelsat", "lat": -0.037073507297688164, "lon": -119.5398120661922, "alt_km": 35785.97609864978, "timestamp": "2025-12-05T14:45:14.981352+00:00", "meta": {"OBJECT_NAME": "INTELSAT 34 (IS-34)", "OBJECT_ID": "2015-039A", "EPOCH": "2025-12-04T13:27:36.142272", "MEAN_MOTION": 1.00269782, "ECCENTRICITY": 4.51e-05, "INCLINATION": 0.0126, "RA_OF_ASC_NODE": 319.2711, "ARG_OF_PERICENTER": 215.7413, "MEAN_ANOMALY": 45.0168, "EPHEMERIS_TYPE": 0, "CLASSIFICATION_TYPE": "U", "NORAD_CAT_ID": 40874, "ELEMENT_SET_NO": 999, "REV_AT_EPOCH": 3767, "BSTAR": 0, "MEAN_MOTION_DOT": -2.71e-06, "MEAN_MOTION_DDOT": 0}, "tle": {"line1": "1 40874U 15039A   25338.56083498 -.00000271  00000+0  00000+0 0  9994", "line2": "2 40874   0.0126 319.2711 0000451 215.7413  45.0168  1.00269782 37673"}}, "geometry": {"type": "Point", "coordinates": [-119.5398120661922, -0.037073507297688164]}}, {"type": "Feature", "properties": {"norad_id": 41581, "name": "INTELSAT 31 (IS-31)", "group": "intelsat", "lat": -0.029647856427777904, "lon": -159.12013818141534, "alt_km": 35778.81739668011, "timestamp": "2025-12-05T14:45:14.981364+00:00", "meta": {"OBJECT_NAME": "INTELSAT 31 (IS-31)", "OBJECT_ID": "2016-035A", "EPOCH": "2025-12-04T13:16:29.706240", "MEAN_MOTION": 1.00264599, "ECCENTRICITY": 0.0002247, "INCLINATION": 0.0181, "RA_OF_ASC_NODE": 271.9889, "ARG_OF_PERICENTER": 299.0275, "MEAN_ANOMALY": 326.6767, "EPHEMERIS_TYPE": 0, "CLASSIFICATION_TYPE": "U", "NORAD_CAT_ID": 41581, "ELEMENT_SET_NO": 999, "REV_AT_EPOCH": 3473, "BSTAR": 0, "MEAN_MOTION_DOT": -1.35e-06, "MEAN_MOTION_DDOT": 0}, "tle": {"line1": "1 41581U 16035A   25338.55312160 -.00000135  00000+0  00000+0 0  9996", "line2": "2 41581   0.0181 271.9889 0002247 299.0275 326.6767  1.00264599 34734"}}, "geometry": {"type": "Point", "coordinates": [-159.12013818141534, -0.029647856427777904]}}, {"type": "Feature", "properties": {"norad_id": 41747, "name": "INTELSAT 36 (IS-36)", "group": "intelsat", "lat": 0.010163240247359883, "lon": 4.4722499204839785, "alt_km": 35782.40692481654, "timestamp": "2025-12-05T14:45:14.981376+00:00", "meta": {"OBJECT_NAME": "INTELSAT 36 (IS-36)", "OBJECT_ID": "2016-053A", "EPOCH": "2025-12-04T12:20:24.107424", "MEAN_MOTION": 1.00269432, "ECCENTRICITY": 0.0001565, "INCLINATION": 0.0147, "RA_OF_ASC_NODE": 2.5233, "ARG_OF_PERICENTER": 312.9415, "MEAN_ANOMALY": 11.722, "EPHEMERIS_TYPE": 0, "CLASSIFICATION_TYPE": "U", "NORAD_CAT_ID": 41747, "ELEMENT_SET_NO": 999, "REV_AT_EPOCH": 3399, "BSTAR": 0, "MEAN_MOTION_DOT": -9e-08, "MEAN_MOTION_DDOT": 0}, "tle": {"line1": "1 41747U 16053A   25338.51416791 -.00000009  00000+0  00000+0 0  9991", "line2": "2 41747   0.0147   2.5233 0001565 312.9415  11.7220  1.00269432 33998"}}, "geometry": {"type": "Point", "coordinates": [4.4722499204839785, 0.010163240247359883]}}, {"type": "Feature", "properties": {"norad_id": 41945, "name": "INTELSAT 32E (IS-32E)", "group": "intelsat", "lat": -0.021744476965339144, "lon": -107.22572225771873, "alt_km": 35786.850653819965, "timestamp": "2025-12-05T14:45:14.981388+00:00", "meta": {"OBJECT_NAME": "INTELSAT 32E (IS-32E)", "OBJECT_ID": "2017-007B", "EPOCH": "2025-12-04T11:48:34.656192", "MEAN_MOTION": 1.00269077, "ECCENTRICITY": 3.1e-05, "INCLINATION": 0.0338, "RA_OF_ASC_NODE": 74.3818, "ARG_OF_PERICENTER": 263.5878, "MEAN_ANOMALY": 229.5611, "EPHEMERIS_TYPE": 0, "CLASSIFICATION_TYPE": "U", "NORAD_CAT_ID": 41945, "ELEMENT_SET_NO": 999, "REV_AT_EPOCH": 3227, "BSTAR": 0, "MEAN_MOTION_DOT": -2.54e-06, "MEAN_MOTION_DDOT": 0}, "tle": {"line1": "1 41945U 17007B   25338.49206778 -.00000254  00000+0  00000+0 0  9992", "line2": "2 41945   0.0338  74.3818 0000310 263.5878 229.5611  1.00269077 32275"}}, "geometry": {"type": "Point", "coordinates": [-107.22572225771873, -0.021744476965339144]}}, {"type": "Feature", "properties": {"norad_id": 42818, "name": "INTELSAT 35E (IS-35E)", "group": "intelsat", "lat": -0.01683993218822896, "lon": -98.51530520467257, "alt_km": 35776.283579617375, "timestamp": "2025-12-05T14:45:14.981400+00:00", "meta": {"OBJECT_NAME": "INTELSAT 35E (IS-35E)", "OBJECT_ID": "2017-041A", "EPOCH": "2025-12-04T10:08:14.299008", "MEAN_MOTION": 1.00270574, "ECCENTRICITY": 0.0002422, "INCLINATION": 0.0037, "RA_OF_ASC_NODE": 34.2287, "ARG_OF_PERICENTER": 223.3147, "MEAN_ANOMALY": 293.533, "EPHEMERIS_TYPE": 0, "CLASSIFICATION_TYPE": "U", "NORAD_CAT_ID": 42818, "ELEMENT_SET_NO": 999, "REV_AT_EPOCH": 3086, "BSTAR": 0, "MEAN_MOTION_DOT": -2.23e-06, "MEAN_MOTION_DDOT": 0}, "tle": {"line1": "1 42818U 17041A   25338.42238772 -.00000223  00000+0  00000+0 0  9998", "line2": "2 42818   0.0037  34.2287 0002422 223.3147 293.5330  1.00270574 30861"}}, "geometry": {"type": "Point", "coordinates": [-98.51530520467257, -0.01683993218822896]}}, {"type": "Feature", "properties": {"norad_id": 42950, "name": "INTELSAT 37E (IS-37E)", "group": "intelsat", "lat": -0.031754534687940573, "lon": -82.0109262804441, "alt_km": 35773.64206970863, "timestamp": "2025-12-05T14:45:14.981412+00:00", "meta": {"OBJECT_NAME": "INTELSAT 37E (IS-37E)", "OBJECT_ID": "2017-059A", "EPOCH": "2025-12-04T10:34:38.634816", "MEAN_MOTION": 1.0027072, "ECCENTRICITY": 0.0003466, "INCLINATION": 0.0176, "RA_OF_ASC_NODE": 324.1366, "ARG_OF_PERICENTER": 284.1963, "MEAN_ANOMALY": 325.8485, "EPHEMERIS_TYPE": 0, "CLASSIFICATION_TYPE": "U", "NORAD_CAT_ID": 42950, "ELEMENT_SET_NO": 999, "REV_AT_EPOCH": 3011, "BSTAR": 0, "MEAN_MOTION_DOT": -1.26e-06, "MEAN_MOTION_DDOT": 0}, "tle": {"line1": "1 42950U 17059A   25338.44072494 -.00000126  00000+0  00000+0 0  9995", "line2": "2 42950   0.0176 324.1366 0003466 284.1963 325.8485  1.00270720 30112"}}, "geometry": {"type": "Point", "coordinates": [-82.0109262804441, -0.031754534687940573]}}, {"type": "Feature", "properties": {"norad_id": 43632, "name": "AZERSPACE 2 (IS-38)", "group": "intelsat", "lat": 0.00046815217961067887, "lon": -18.895977544814983, "alt_km": 35784.75570399097, "timestamp": "2025-12-05T14:45:14.981424+00:00", "meta": {"OBJECT_NAME": "AZERSPACE 2 (IS-38)", "OBJECT_ID": "2018-074A", "EPOCH": "2025-12-04T10:30:49.635072", "MEAN_MOTION": 1.00272098, "ECCENTRICITY": 0.0001727, "INCLINATION": 0.0173, "RA_OF_ASC_NODE": 347.5923, "ARG_OF_PERICENTER": 272.1279, "MEAN_ANOMALY": 16.6122, "EPHEMERIS_TYPE": 0, "CLASSIFICATION_TYPE": "U", "NORAD_CAT_ID": 43632, "ELEMENT_SET_NO": 999, "REV_AT_EPOCH": 2649, "BSTAR": 0, "MEAN_MOTION_DOT": 1.51e-06, "MEAN_MOTION_DDOT": 0}, "tle": {"line1": "1 43632U 18074A   25338.43807448  .00000151  00000+0  00000+0 0  9992", "line2": "2 43632   0.0173 347.5923 0001727 272.1279  16.6122  1.00272098 26499"}}, "geometry": {"type": "Point", "coordinates": [-18.895977544814983, 0.00046815217961067887]}}, {"type": "Feature", "properties": {"norad_id": 43633, "name": "HORIZONS-3E", "group": "intelsat", "lat": 0.0006094775333396782, "lon": 104.98126272491974, "alt_km": 35792.04560225197, "timestamp": "2025-12-05T14:45:14.981435+00:00", "meta": {"OBJECT_NAME": "HORIZONS-3E", "OBJECT_ID": "2018-074B", "EPOCH": "2025-12-04T12:50:38.628384", "MEAN_MOTION": 1.00268381, "ECCENTRICITY": 0.0001198, "INCLINATION": 0.036, "RA_OF_ASC_NODE": 200.4752, "ARG_OF_PERICENTER": 89.4189, "MEAN_ANOMALY": 145.3993, "EPHEMERIS_TYPE": 0, "CLASSIFICATION_TYPE": "U", "NORAD_CAT_ID": 43633, "ELEMENT_SET_NO": 999, "REV_AT_EPOCH": 2638, "BSTAR": 0, "MEAN_MOTION_DOT": -1.6e-07, "MEAN_MOTION_DDOT": 0}, "tle": {"line1": "1 43633U 18074B   25338.53516931 -.00000016  00000+0  00000+0 0  9999", "line2": "2 43633   0.0360 200.4752 0001198  89.4189 145.3993  1.00268381 26380"}}, "geometry": {"type": "Point", "coordinates": [104.98126272491974, 0.0006094775333396782]}}, {"type": "Feature", "properties": {"norad_id": 44333, "name": "AT&T T-16", "group": "intelsat", "lat": 0.006501361531657272, "lon": -164.9138442677418, "alt_km": 35785.716795002496, "timestamp": "2025-12-05T14:45:14.981447+00:00", "meta": {"OBJECT_NAME": "AT&T T-16", "OBJECT_ID": "2019-034A", "EPOCH": "2025-12-04T08:38:38.724288", "MEAN_MOTION": 1.0026863, "ECCENTRICITY": 3.23e-05, "INCLINATION": 0.0351, "RA_OF_ASC_NODE": 77.2721, "ARG_OF_PERICENTER": 97.2425, "MEAN_ANOMALY": 287.7127, "EPHEMERIS_TYPE": 0, "CLASSIFICATION_TYPE": "U", "NORAD_CAT_ID": 44333, "ELEMENT_SET_NO": 999, "REV_AT_EPOCH": 2368, "BSTAR": 0, "MEAN_MOTION_DOT": -1e-06, "MEAN_MOTION_DDOT": 0}, "tle": {"line1": "1 44333U 19034A   25338.36017042 -.00000100  00000+0  00000+0 0  9998", "line2": "2 44333   0.0351  77.2721 0000323  97.2425 287.7127  1.00268630 23680"}}, "geometry": {"type": "Point", "coordinates": [-164.9138442677418, 0.006501361531657272]}}]}